{
    "links": {
        "self": "http://www.neowsapp.com/rest/v1/neo/3358226?api_key=iIulBulltgU6a56xZRHN4H3l9WmuAYTsLGpBGhQ2"
    },
    "id": "3358226",
    "neo_reference_id": "3358226",
    "name": "(2006 VB3)",
    "designation": "2006 VB3",
    "nasa_jpl_url": "http://ssd.jpl.nasa.gov/sbdb.cgi?sstr=3358226",
    "absolute_magnitude_h": 21.2,
    "estimated_diameter": {
        "kilometers": {
            "estimated_diameter_min": 0.1529519353,
            "estimated_diameter_max": 0.3420109247
        },
        "meters": {
            "estimated_diameter_min": 152.9519353442,
            "estimated_diameter_max": 342.0109247198
        },
        "miles": {
            "estimated_diameter_min": 0.095039897,
            "estimated_diameter_max": 0.2125156703
        },
        "feet": {
            "estimated_diameter_min": 501.8108275547,
            "estimated_diameter_max": 1122.0831222578
        }
    },
    "is_potentially_hazardous_asteroid": false,
    "close_approach_data": [
        {
            "close_approach_date": "2006-10-22",
            "close_approach_date_full": "2006-Oct-22 08:17",
            "epoch_date_close_approach": 1161505020000,
            "relative_velocity": {
                "kilometers_per_second": "6.3415247061",
                "kilometers_per_hour": "22829.4889420791",
                "miles_per_hour": "14185.3566151491"
            },
            "miss_distance": {
                "astronomical": "0.3056419138",
                "lunar": "118.8947044682",
                "kilometers": "45723379.287203606",
                "miles": "28411190.4446615228"
            },
            "orbiting_body": "Earth"
        },
        {
            "close_approach_date": "2068-10-17",
            "close_approach_date_full": "2068-Oct-17 12:36",
            "epoch_date_close_approach": 3117702960000,
            "relative_velocity": {
                "kilometers_per_second": "7.3442130689",
                "kilometers_per_hour": "26439.1670481702",
                "miles_per_hour": "16428.2702139033"
            },
            "miss_distance": {
                "astronomical": "0.3487297251",
                "lunar": "135.6558630639",
                "kilometers": "52169224.080645537",
                "miles": "32416452.6728289306"
            },
            "orbiting_body": "Earth"
        },
        {
            "close_approach_date": "2087-10-21",
            "close_approach_date_full": "2087-Oct-21 15:31",
            "epoch_date_close_approach": 3717588660000,
            "relative_velocity": {
                "kilometers_per_second": "7.2955837973",
                "kilometers_per_hour": "26264.1016701316",
                "miles_per_hour": "16319.4913960882"
            },
            "miss_distance": {
                "astronomical": "0.2809845373",
                "lunar": "109.3029850097",
                "kilometers": "42034688.283015551",
                "miles": "26119144.1382585638"
            },
            "orbiting_body": "Earth"
        },
        {
            "close_approach_date": "2153-10-24",
            "close_approach_date_full": "2153-Oct-24 19:15",
            "epoch_date_close_approach": 5800619700000,
            "relative_velocity": {
                "kilometers_per_second": "9.1643893193",
                "kilometers_per_hour": "32991.8015494725",
                "miles_per_hour": "20499.8224683375"
            },
            "miss_distance": {
                "astronomical": "0.3299268224",
                "lunar": "128.3415339136",
                "kilometers": "49356349.886908288",
                "miles": "30668613.6972108544"
            },
            "orbiting_body": "Earth"
        },
        {
            "close_approach_date": "2186-10-22",
            "close_approach_date_full": "2186-Oct-22 11:09",
            "epoch_date_close_approach": 6841796940000,
            "relative_velocity": {
                "kilometers_per_second": "7.2868683068",
                "kilometers_per_hour": "26232.7259043167",
                "miles_per_hour": "16299.9957153795"
            },
            "miss_distance": {
                "astronomical": "0.2842244704",
                "lunar": "110.5633189856",
                "kilometers": "42519375.373718048",
                "miles": "26420314.7309551424"
            },
            "orbiting_body": "Earth"
        }
    ],
    "orbital_data": {
        "orbit_id": "11",
        "orbit_determination_date": "2017-04-06 09:07:40",
        "first_observation_date": "2006-10-16",
        "last_observation_date": "2006-12-12",
        "data_arc_in_days": 57,
        "observations_used": 55,
        "orbit_uncertainty": "6",
        "minimum_orbit_intersection": ".314094",
        "jupiter_tisserand_invariant": "3.048",
        "epoch_osculation": "2459000.5",
        "eccentricity": ".5432099587032142",
        "semi_major_axis": "2.844913893605415",
        "inclination": "10.99265810917179",
        "ascending_node_longitude": "46.45493012239581",
        "orbital_period": "1752.677922849133",
        "perihelion_distance": "1.299528334945817",
        "perihelion_argument": "336.499652968756",
        "aphelion_distance": "4.390299452265012",
        "perihelion_time": "2459255.195113089670",
        "mean_anomaly": "307.6856303620059",
        "mean_motion": ".2053999741234762",
        "equinox": "J2000",
        "orbit_class": {
            "orbit_class_type": "AMO",
            "orbit_class_description": "Near-Earth asteroid orbits similar to that of 1221 Amor",
            "orbit_class_range": "1.017 AU < q (perihelion) < 1.3 AU"
        }
    },
    "is_sentry_object": false
}